{
    "links": {
        "self": "http://www.neowsapp.com/rest/v1/neo/3605165?api_key=iIulBulltgU6a56xZRHN4H3l9WmuAYTsLGpBGhQ2"
    },
    "id": "3605165",
    "neo_reference_id": "3605165",
    "name": "(2012 KA42)",
    "designation": "2012 KA42",
    "nasa_jpl_url": "http://ssd.jpl.nasa.gov/sbdb.cgi?sstr=3605165",
    "absolute_magnitude_h": 27.3,
    "estimated_diameter": {
        "kilometers": {
            "estimated_diameter_min": 0.0092162655,
            "estimated_diameter_max": 0.0206081961
        },
        "meters": {
            "estimated_diameter_min": 9.216265485,
            "estimated_diameter_max": 20.6081961232
        },
        "miles": {
            "estimated_diameter_min": 0.0057267201,
            "estimated_diameter_max": 0.0128053354
        },
        "feet": {
            "estimated_diameter_min": 30.2370924539,
            "estimated_diameter_max": 67.6121941689
        }
    },
    "is_potentially_hazardous_asteroid": false,
    "close_approach_data": [
        {
            "close_approach_date": "2012-05-22",
            "close_approach_date_full": "2012-May-22 21:42",
            "epoch_date_close_approach": 1337722920000,
            "relative_velocity": {
                "kilometers_per_second": "6.0034212141",
                "kilometers_per_hour": "21612.31637059",
                "miles_per_hour": "13429.0529137146"
            },
            "miss_distance": {
                "astronomical": "0.0177298441",
                "lunar": "6.8969093549",
                "kilometers": "2652346.912792067",
                "miles": "1648091.9485698446"
            },
            "orbiting_body": "Earth"
        }
    ],
    "orbital_data": {
        "orbit_id": "4",
        "orbit_determination_date": "2017-04-06 08:49:40",
        "first_observation_date": "2012-05-27",
        "last_observation_date": "2012-05-27",
        "data_arc_in_days": null,
        "observations_used": 19,
        "orbit_uncertainty": "9",
        "minimum_orbit_intersection": ".0147965",
        "jupiter_tisserand_invariant": "4.947",
        "epoch_osculation": "2456074.5",
        "eccentricity": ".2508438669684372",
        "semi_major_axis": "1.306653461494167",
        "inclination": "6.162232748438127",
        "ascending_node_longitude": "245.9962958681547",
        "orbital_period": "545.5556549634409",
        "perihelion_distance": ".978887454425276",
        "perihelion_argument": "316.3482079454744",
        "aphelion_distance": "1.634419468563058",
        "perihelion_time": "2456034.940511741148",
        "mean_anomaly": "26.10442334089833",
        "mean_motion": ".6598776801683497",
        "equinox": "J2000",
        "orbit_class": {
            "orbit_class_type": "APO",
            "orbit_class_description": "Near-Earth asteroid orbits which cross the Earth’s orbit similar to that of 1862 Apollo",
            "orbit_class_range": "a (semi-major axis) > 1.0 AU; q (perihelion) < 1.017 AU"
        }
    },
    "is_sentry_object": false
}